[{"OBJECT_NAME":"STARLINK-2499","OBJECT_ID":"2021-038AA","EPOCH":"2026-03-09T22:36:48.851712","MEAN_MOTION":15.30195456,"ECCENTRICITY":0.00013952,"INCLINATION":53.1602,"RA_OF_ASC_NODE":346.6297,"ARG_OF_PERICENTER":114.177,"MEAN_ANOMALY":245.9377,"EPHEMERIS_TYPE":0,"CLASSIFICATION_TYPE":"U","NORAD_CAT_ID":48377,"ELEMENT_SET_NO":999,"REV_AT_EPOCH":26726,"BSTAR":7.9625583e-5,"MEAN_MOTION_DOT":1.999e-5,"MEAN_MOTION_DDOT":0},{"OBJECT_NAME":"UTMN 2 (RS27S)","OBJECT_ID":"2023-091AP","EPOCH":"2026-03-09T23:09:07.917408","MEAN_MOTION":15.29495965,"ECCENTRICITY":0.00097379,"INCLINATION":97.5194,"RA_OF_ASC_NODE":134.949,"ARG_OF_PERICENTER":76.0788,"MEAN_ANOMALY":284.1534,"EPHEMERIS_TYPE":0,"CLASSIFICATION_TYPE":"U","NORAD_CAT_ID":57203,"ELEMENT_SET_NO":999,"REV_AT_EPOCH":14936,"BSTAR":0.00056135701,"MEAN_MOTION_DOT":0.00016013,"MEAN_MOTION_DDOT":0}]
